ORBCOMM FM103           
1 40091U 14040F   26004.81392971  .00001335  00000+0  32039-3 0  9996
2 40091  47.0042 145.3257 0001412 150.7540 209.3425 14.58581485593539
ORBCOMM FM114           
1 41179U 15081A   26004.83036210  .00001170  00000+0  28517-3 0  9996
2 41179  47.0057  54.2006 0002405 197.2680 162.8124 14.58603904533902
ORBCOMM FM119           
1 41180U 15081B   26004.27921484  .00001266  00000+0  30590-3 0  9992
2 41180  47.0018 326.1650 0001793 267.2168  92.8512 14.58552098535075
ORBCOMM FM105           
1 41181U 15081C   26004.66534779  .00000575  00000+0  20619-3 0  9996
2 41181  47.0029 348.9900 0001218 175.7667 184.3223 14.45430087529895
ORBCOMM FM110           
1 41182U 15081D   26004.47735506  .00001662  00000+0  38950-3 0  9992
2 41182  47.0019  55.3604 0001912  13.6465 346.4472 14.58645375533728
ORBCOMM FM118           
1 41183U 15081E   26004.44347092  .00001438  00000+0  34209-3 0  9993
2 41183  47.0049  55.8234 0002926 335.3272  24.7474 14.58630200533822
ORBCOMM FM112           
1 41184U 15081F   26004.58309174  .00001426  00000+0  33945-3 0  9991
2 41184  47.0002 323.6905 0001462 210.7295 149.3505 14.58633653535060
ORBCOMM FM113           
1 41185U 15081G   26004.56040747  .00001460  00000+0  34655-3 0  9995
2 41185  47.0021 324.1574 0001404 227.0030 133.0738 14.58629703535041
